61781,ASRTU-1 (AO-123),2024,94.14,-1.0,+,97.34,Active,0,LEO,Russia,China,Unknown,Unknown,Unknown,1 61781U 24199AY  25262.60969728  .00006958  00000+0  24358-3 0  9994,2 61781  97.3384 129.0669 0014929 188.8359 171.2621 15.29711338 92471,15.29711338,0.0014929,LEO
61782,TUSUR GO (RS78S),2024,93.39,-1.0,+,97.34,Active,0,LEO,Russia,Russia/USSR,Unknown,Unknown,Unknown,1 61782U 24199AZ  25262.60148718  .00032032  00000+0  74754-3 0  9990,2 61782  97.3352 131.7355 0012375 173.3761 186.7652 15.42074829 92655,15.42074829,0.0012375,LEO
61784,SAMSAT-IONOSPHERE (RS75S),2024,93.7,-1.0,+,97.34,Active,0,LEO,Russia,Russia/USSR,Unknown,Unknown,Unknown,1 61784U 24199BB  25262.59341235  .00019253  00000+0  53359-3 0  9997,2 61784  97.3371 130.7247 0013549 180.3873 179.7364 15.36902371 95732,15.36902371,0.0013549,LEO
61785,RTU MIREA 1 (RS51S),2024,93.66,-1.0,+,97.34,Active,0,LEO,Russia,Russia/USSR,Unknown,Unknown,Unknown,1 61785U 24199BC  25262.59455471  .00021312  00000+0  57762-3 0  9997,2 61785  97.3368 130.8695 0013300 178.3055 181.8237 15.37578109 92594,15.37578109,0.00133,LEO
62690,HADES-R,2025,93.68,-1.0,+,97.4,Active,0,LEO,USA,Spain,Unknown,Unknown,Unknown,1 62690U 25009CK  25261.74792675  .00052883  00000+0  14463-2 0  9997,2 62690  97.4020 342.6267 0002704 122.4801 237.6705 15.37186901 37649,15.37186901,0.0002704,LEO
63213,TEVEL2-4,2025,94.55,-1.0,+,97.42,Active,0,LEO,USA,Israel,Unknown,Unknown,Unknown,1 63213U 25052D   25262.13810225  .00012686  00000+0  54230-3 0  9997,2 63213  97.4169 154.7917 0003793  28.7411 331.4034 15.22977098 28695,15.22977098,0.0003793,LEO
63214,TEVEL2-5,2025,94.56,-1.0,+,97.42,Active,0,LEO,USA,Israel,Unknown,Unknown,Unknown,1 63214U 25052E   25261.61489274  .00012115  00000+0  51883-3 0  9994,2 63214  97.4177 154.2705 0003820  32.3567 327.7903 15.22925932 28614,15.22925932,0.000382,LEO
63215,TEVEL2-6,2025,94.56,-1.0,+,97.42,Active,0,LEO,USA,Israel,Unknown,Unknown,Unknown,1 63215U 25052F   25261.94822335  .00013056  00000+0  55933-3 0  9995,2 63215  97.4172 154.5917 0003914  31.1033 329.0435 15.22893919 28666,15.22893919,0.0003914,LEO
63217,TEVEL2-1,2025,94.57,-1.0,+,97.41,Active,0,LEO,USA,Israel,Unknown,Unknown,Unknown,1 63217U 25052H   25262.63201782  .00012685  00000+0  54737-3 0  9999,2 63217  97.4150 155.1437 0004423  37.4191 322.7353 15.22654788 28767,15.22654788,0.0004423,LEO
63218,TEVEL2-3,2025,94.57,-1.0,+,97.42,Active,0,LEO,USA,Israel,Unknown,Unknown,Unknown,1 63218U 25052J   25261.64629583  .00012865  00000+0  55535-3 0  9990,2 63218  97.4152 154.1731 0004618  40.3695 319.7884 15.22636683 28617,15.22636683,0.0004618,LEO
63219,TEVEL2-2,2025,94.57,-1.0,+,97.42,Active,0,LEO,USA,Israel,Unknown,Unknown,Unknown,1 63219U 25052K   25262.43558720  .00012528  00000+0  54078-3 0  9990,2 63219  97.4150 154.9495 0004494  38.1834 321.9720 15.22645502 28730,15.22645502,0.0004494,LEO
63237,TEVEL2-9,2025,94.66,-1.0,+,97.42,Active,0,LEO,USA,Israel,Unknown,Unknown,Unknown,1 63237U 25052AD  25262.58447782  .00012807  00000+0  57383-3 0  9993,2 63237  97.4212 154.9094 0008870  33.2616 326.9176 15.21340893 28734,15.21340893,0.000887,LEO
63238,TEVEL2-7,2025,94.66,-1.0,+,97.42,Active,0,LEO,USA,Israel,Unknown,Unknown,Unknown,1 63238U 25052AE  25262.59172695  .00012614  00000+0  56675-3 0  9992,2 63238  97.4216 154.9044 0008929  33.0055 327.1736 15.21249282 28739,15.21249282,0.0008929,LEO
63239,TEVEL2-8,2025,94.66,-1.0,+,97.42,Active,0,LEO,USA,Israel,Unknown,Unknown,Unknown,1 63239U 25052AF  25262.46426294  .00012212  00000+0  54934-3 0  9996,2 63239  97.4213 154.7670 0008954  33.7708 326.4096 15.21215992 28710,15.21215992,0.0008954,LEO
63492,HADES-ICM,2025,94.24,-1.0,+,97.43,Active,0,LEO,USA,Spain,Unknown,Unknown,Unknown,1 63492U 25052BN  25261.66832620  .00030964  00000+0  11273-2 0  9994,2 63492  97.4160 154.9456 0012200  34.3806 325.8220 15.28091799 28661,15.28091799,0.00122,LEO
64878,INNOSAT 16 (RS92S7),2025,94.64,-1.0,+,97.42,Active,0,LEO,Russia,Malaysia,Unknown,Unknown,Unknown,1 64878U 25155C   25262.47789375  .00004111  00000+0  18480-3 0  9998,2 64878  97.4182 226.8850 0013307  62.2391 298.0193 15.21612755 39452,15.21612755,0.0013307,LEO
