[{"OBJECT_NAME":"ASRTU-1 (AO-123)","OBJECT_ID":"2024-199AY","EPOCH":"2025-09-19T14:37:57.844992","MEAN_MOTION":15.29711338,"ECCENTRICITY":0.00149294,"INCLINATION":97.3384,"RA_OF_ASC_NODE":129.0669,"ARG_OF_PERICENTER":188.8359,"MEAN_ANOMALY":171.2621,"EPHEMERIS_TYPE":0,"CLASSIFICATION_TYPE":"U","NORAD_CAT_ID":61781,"ELEMENT_SET_NO":999,"REV_AT_EPOCH":9247,"BSTAR":0.00024358206,"MEAN_MOTION_DOT":6.958e-5,"MEAN_MOTION_DDOT":0},{"OBJECT_NAME":"TUSUR GO (RS78S)","OBJECT_ID":"2024-199AZ","EPOCH":"2025-09-19T14:26:08.492352","MEAN_MOTION":15.42074829,"ECCENTRICITY":0.00123756,"INCLINATION":97.3352,"RA_OF_ASC_NODE":131.7355,"ARG_OF_PERICENTER":173.3761,"MEAN_ANOMALY":186.7652,"EPHEMERIS_TYPE":0,"CLASSIFICATION_TYPE":"U","NORAD_CAT_ID":61782,"ELEMENT_SET_NO":999,"REV_AT_EPOCH":9265,"BSTAR":0.00074754272,"MEAN_MOTION_DOT":0.00032032,"MEAN_MOTION_DDOT":0},{"OBJECT_NAME":"SAMSAT-IONOSPHERE (RS75S)","OBJECT_ID":"2024-199BB","EPOCH":"2025-09-19T14:14:30.827040","MEAN_MOTION":15.36902371,"ECCENTRICITY":0.00135495,"INCLINATION":97.3371,"RA_OF_ASC_NODE":130.7247,"ARG_OF_PERICENTER":180.3873,"MEAN_ANOMALY":179.7364,"EPHEMERIS_TYPE":0,"CLASSIFICATION_TYPE":"U","NORAD_CAT_ID":61784,"ELEMENT_SET_NO":999,"REV_AT_EPOCH":9573,"BSTAR":0.00053359257,"MEAN_MOTION_DOT":0.00019253,"MEAN_MOTION_DDOT":0},{"OBJECT_NAME":"RTU MIREA 1 (RS51S)","OBJECT_ID":"2024-199BC","EPOCH":"2025-09-19T14:16:09.526944","MEAN_MOTION":15.37578109,"ECCENTRICITY":0.00133001,"INCLINATION":97.3368,"RA_OF_ASC_NODE":130.8695,"ARG_OF_PERICENTER":178.3055,"MEAN_ANOMALY":181.8237,"EPHEMERIS_TYPE":0,"CLASSIFICATION_TYPE":"U","NORAD_CAT_ID":61785,"ELEMENT_SET_NO":999,"REV_AT_EPOCH":9259,"BSTAR":0.0005776191,"MEAN_MOTION_DOT":0.00021312,"MEAN_MOTION_DDOT":0},{"OBJECT_NAME":"HADES-R","OBJECT_ID":"2025-009CK","EPOCH":"2025-09-18T17:57:00.871200","MEAN_MOTION":15.37186901,"ECCENTRICITY":0.00027045,"INCLINATION":97.402,"RA_OF_ASC_NODE":342.6267,"ARG_OF_PERICENTER":122.4801,"MEAN_ANOMALY":237.6705,"EPHEMERIS_TYPE":0,"CLASSIFICATION_TYPE":"U","NORAD_CAT_ID":62690,"ELEMENT_SET_NO":999,"REV_AT_EPOCH":3764,"BSTAR":0.0014462518,"MEAN_MOTION_DOT":0.00052883,"MEAN_MOTION_DDOT":0},{"OBJECT_NAME":"TEVEL2-4","OBJECT_ID":"2025-052D","EPOCH":"2025-09-19T03:18:52.034400","MEAN_MOTION":15.22977098,"ECCENTRICITY":0.00037933,"INCLINATION":97.4169,"RA_OF_ASC_NODE":154.7917,"ARG_OF_PERICENTER":28.7411,"MEAN_ANOMALY":331.4034,"EPHEMERIS_TYPE":0,"CLASSIFICATION_TYPE":"U","NORAD_CAT_ID":63213,"ELEMENT_SET_NO":999,"REV_AT_EPOCH":2869,"BSTAR":0.00054229839,"MEAN_MOTION_DOT":0.00012686,"MEAN_MOTION_DDOT":0},{"OBJECT_NAME":"TEVEL2-5","OBJECT_ID":"2025-052E","EPOCH":"2025-09-18T14:45:26.732736","MEAN_MOTION":15.22925932,"ECCENTRICITY":0.00038205,"INCLINATION":97.4177,"RA_OF_ASC_NODE":154.2705,"ARG_OF_PERICENTER":32.3567,"MEAN_ANOMALY":327.7903,"EPHEMERIS_TYPE":0,"CLASSIFICATION_TYPE":"U","NORAD_CAT_ID":63214,"ELEMENT_SET_NO":999,"REV_AT_EPOCH":2861,"BSTAR":0.00051883163,"MEAN_MOTION_DOT":0.00012115,"MEAN_MOTION_DDOT":0},{"OBJECT_NAME":"TEVEL2-6","OBJECT_ID":"2025-052F","EPOCH":"2025-09-18T22:45:26.497440","MEAN_MOTION":15.22893919,"ECCENTRICITY":0.00039141,"INCLINATION":97.4172,"RA_OF_ASC_NODE":154.5917,"ARG_OF_PERICENTER":31.1033,"MEAN_ANOMALY":329.0435,"EPHEMERIS_TYPE":0,"CLASSIFICATION_TYPE":"U","NORAD_CAT_ID":63215,"ELEMENT_SET_NO":999,"REV_AT_EPOCH":2866,"BSTAR":0.00055933159,"MEAN_MOTION_DOT":0.00013056,"MEAN_MOTION_DDOT":0},{"OBJECT_NAME":"TEVEL2-1","OBJECT_ID":"2025-052H","EPOCH":"2025-09-19T15:10:06.339648","MEAN_MOTION":15.22654788,"ECCENTRICITY":0.00044238,"INCLINATION":97.415,"RA_OF_ASC_NODE":155.1437,"ARG_OF_PERICENTER":37.4191,"MEAN_ANOMALY":322.7353,"EPHEMERIS_TYPE":0,"CLASSIFICATION_TYPE":"U","NORAD_CAT_ID":63217,"ELEMENT_SET_NO":999,"REV_AT_EPOCH":2876,"BSTAR":0.00054737008,"MEAN_MOTION_DOT":0.00012685,"MEAN_MOTION_DDOT":0},{"OBJECT_NAME":"TEVEL2-3","OBJECT_ID":"2025-052J","EPOCH":"2025-09-18T15:30:39.959712","MEAN_MOTION":15.22636683,"ECCENTRICITY":0.0004618,"INCLINATION":97.4152,"RA_OF_ASC_NODE":154.1731,"ARG_OF_PERICENTER":40.3695,"MEAN_ANOMALY":319.7884,"EPHEMERIS_TYPE":0,"CLASSIFICATION_TYPE":"U","NORAD_CAT_ID":63218,"ELEMENT_SET_NO":999,"REV_AT_EPOCH":2861,"BSTAR":0.00055534914,"MEAN_MOTION_DOT":0.00012865,"MEAN_MOTION_DDOT":0},{"OBJECT_NAME":"TEVEL2-2","OBJECT_ID":"2025-052K","EPOCH":"2025-09-19T10:27:14.734080","MEAN_MOTION":15.22645502,"ECCENTRICITY":0.00044942,"INCLINATION":97.415,"RA_OF_ASC_NODE":154.9495,"ARG_OF_PERICENTER":38.1834,"MEAN_ANOMALY":321.972,"EPHEMERIS_TYPE":0,"CLASSIFICATION_TYPE":"U","NORAD_CAT_ID":63219,"ELEMENT_SET_NO":999,"REV_AT_EPOCH":2873,"BSTAR":0.00054078249,"MEAN_MOTION_DOT":0.00012528,"MEAN_MOTION_DDOT":0},{"OBJECT_NAME":"TEVEL2-9","OBJECT_ID":"2025-052AD","EPOCH":"2025-09-19T14:01:38.883648","MEAN_MOTION":15.21340893,"ECCENTRICITY":0.00088706,"INCLINATION":97.4212,"RA_OF_ASC_NODE":154.9094,"ARG_OF_PERICENTER":33.2616,"MEAN_ANOMALY":326.9176,"EPHEMERIS_TYPE":0,"CLASSIFICATION_TYPE":"U","NORAD_CAT_ID":63237,"ELEMENT_SET_NO":999,"REV_AT_EPOCH":2873,"BSTAR":0.00057382826,"MEAN_MOTION_DOT":0.00012807,"MEAN_MOTION_DDOT":0},{"OBJECT_NAME":"TEVEL2-7","OBJECT_ID":"2025-052AE","EPOCH":"2025-09-19T14:12:05.208480","MEAN_MOTION":15.21249282,"ECCENTRICITY":0.00089294,"INCLINATION":97.4216,"RA_OF_ASC_NODE":154.9044,"ARG_OF_PERICENTER":33.0055,"MEAN_ANOMALY":327.1736,"EPHEMERIS_TYPE":0,"CLASSIFICATION_TYPE":"U","NORAD_CAT_ID":63238,"ELEMENT_SET_NO":999,"REV_AT_EPOCH":2873,"BSTAR":0.00056674725,"MEAN_MOTION_DOT":0.00012614,"MEAN_MOTION_DDOT":0},{"OBJECT_NAME":"TEVEL2-8","OBJECT_ID":"2025-052AF","EPOCH":"2025-09-19T11:08:32.318016","MEAN_MOTION":15.21215992,"ECCENTRICITY":0.00089541,"INCLINATION":97.4213,"RA_OF_ASC_NODE":154.767,"ARG_OF_PERICENTER":33.7708,"MEAN_ANOMALY":326.4096,"EPHEMERIS_TYPE":0,"CLASSIFICATION_TYPE":"U","NORAD_CAT_ID":63239,"ELEMENT_SET_NO":999,"REV_AT_EPOCH":2871,"BSTAR":0.0005493384,"MEAN_MOTION_DOT":0.00012212,"MEAN_MOTION_DDOT":0},{"OBJECT_NAME":"HADES-ICM","OBJECT_ID":"2025-052BN","EPOCH":"2025-09-18T16:02:23.383680","MEAN_MOTION":15.28091799,"ECCENTRICITY":0.00122008,"INCLINATION":97.416,"RA_OF_ASC_NODE":154.9456,"ARG_OF_PERICENTER":34.3806,"MEAN_ANOMALY":325.822,"EPHEMERIS_TYPE":0,"CLASSIFICATION_TYPE":"U","NORAD_CAT_ID":63492,"ELEMENT_SET_NO":999,"REV_AT_EPOCH":2866,"BSTAR":0.0011272567,"MEAN_MOTION_DOT":0.00030964,"MEAN_MOTION_DDOT":0},{"OBJECT_NAME":"INNOSAT 16 (RS92S7)","OBJECT_ID":"2025-155C","EPOCH":"2025-09-19T11:28:10.020000","MEAN_MOTION":15.21612755,"ECCENTRICITY":0.00133079,"INCLINATION":97.4182,"RA_OF_ASC_NODE":226.885,"ARG_OF_PERICENTER":62.2391,"MEAN_ANOMALY":298.0193,"EPHEMERIS_TYPE":0,"CLASSIFICATION_TYPE":"U","NORAD_CAT_ID":64878,"ELEMENT_SET_NO":999,"REV_AT_EPOCH":3945,"BSTAR":0.0001848029,"MEAN_MOTION_DOT":4.111e-5,"MEAN_MOTION_DDOT":0}]
